start=new Date('2023-01-07T00:00:00.000Z').valueOf();
sats=[{"SEMIMAJOR_AXIS":"6917.941","OBJECT_NAME":"STARLINK-4568","CENTER_NAME":"EARTH","BSTAR":"-0.00063628000000","ECCENTRICITY":"0.00024040","ELEMENT_SET_NO":"999","CLASSIFICATION_TYPE":"U","EPOCH":"2023-01-06T10:49:58.254816","MEAN_ANOMALY":"327.6413","GP_ID":"222345770","OBJECT_ID":"2022-104AL","SITE":"AFETR","OBJECT_TYPE":"PAYLOAD","MEAN_MOTION":"15.08820260","DECAY_DATE":null,"COUNTRY_CODE":"US","REV_AT_EPOCH":"2089","INCLINATION":"53.2170","FILE":"3734255","REF_FRAME":"TEME","PERIAPSIS":"538.143","PERIOD":"95.439","LAUNCH_DATE":"2022-08-28","RA_OF_ASC_NODE":"33.4255","APOAPSIS":"541.469","NORAD_CAT_ID":"53622","TIME_SYSTEM":"UTC","MEAN_ELEMENT_THEORY":"SGP4","ARG_OF_PERICENTER":"32.4726","EPHEMERIS_TYPE":"0","TLE_LINE2":"2 53622  53.2170  33.4255 0002404  32.4726 327.6413 15.08820260 20891","RCS_SIZE":"LARGE","TLE_LINE1":"1 53622U 22104AL  23006.45136869 -.00010395  00000-0 -63628-3 0  9998","MEAN_MOTION_DDOT":"0.0000000000000","MEAN_MOTION_DOT":"-0.00010395"},{"BSTAR":"0.00008930200000","OBJECT_NAME":"STARLINK-4573","SEMIMAJOR_AXIS":"6917.851","CENTER_NAME":"EARTH","GP_ID":"222301217","MEAN_ANOMALY":"297.7385","CLASSIFICATION_TYPE":"U","ELEMENT_SET_NO":"999","ECCENTRICITY":"0.00022140","EPOCH":"2023-01-05T11:13:43.704480","RA_OF_ASC_NODE":"37.9367","LAUNCH_DATE":"2022-08-28","PERIOD":"95.437","PERIAPSIS":"538.184","REF_FRAME":"TEME","TIME_SYSTEM":"UTC","NORAD_CAT_ID":"53623","APOAPSIS":"541.248","DECAY_DATE":null,"SITE":"AFETR","MEAN_MOTION":"15.08849601","OBJECT_TYPE":"PAYLOAD","OBJECT_ID":"2022-104AM","FILE":"3733360","INCLINATION":"53.2182","COUNTRY_CODE":"US","REV_AT_EPOCH":"2006","MEAN_MOTION_DOT":"0.00001134","MEAN_MOTION_DDOT":"0.0000000000000","TLE_LINE1":"1 53623U 22104AM  23005.46786695  .00001134  00000-0  89302-4 0  9994","ARG_OF_PERICENTER":"62.3831","MEAN_ELEMENT_THEORY":"SGP4","RCS_SIZE":"LARGE","TLE_LINE2":"2 53623  53.2182  37.9367 0002214  62.3831 297.7385 15.08849601 20060","EPHEMERIS_TYPE":"0"},{"MEAN_ANOMALY":"315.1577","GP_ID":"222346688","EPOCH":"2023-01-06T13:59:22.536672","ECCENTRICITY":"0.00019660","CLASSIFICATION_TYPE":"U","ELEMENT_SET_NO":"999","BSTAR":"0.00185930000000","CENTER_NAME":"EARTH","SEMIMAJOR_AXIS":"6917.801","OBJECT_NAME":"STARLINK-4596","MEAN_MOTION_DOT":"0.00029448","MEAN_MOTION_DDOT":"0.0000000000000","TLE_LINE1":"1 53624U 22104AN  23006.58289973  .00029448  00000-0  18593-2 0  9996","TLE_LINE2":"2 53624  53.2160  32.8184 0001966  44.9574 315.1577 15.08866040 20919","EPHEMERIS_TYPE":"0","RCS_SIZE":"LARGE","MEAN_ELEMENT_THEORY":"SGP4","ARG_OF_PERICENTER":"44.9574","NORAD_CAT_ID":"53624","APOAPSIS":"541.026","TIME_SYSTEM":"UTC","PERIAPSIS":"538.306","REF_FRAME":"TEME","RA_OF_ASC_NODE":"32.8184","PERIOD":"95.436","LAUNCH_DATE":"2022-08-28","REV_AT_EPOCH":"2091","COUNTRY_CODE":"US","FILE":"3734255","INCLINATION":"53.2160","OBJECT_ID":"2022-104AN","DECAY_DATE":null,"SITE":"AFETR","MEAN_MOTION":"15.08866040","OBJECT_TYPE":"PAYLOAD"},{"EPOCH":"2023-01-06T22:01:37.263360","CLASSIFICATION_TYPE":"U","ELEMENT_SET_NO":"999","ECCENTRICITY":"0.00020410","GP_ID":"222346000","MEAN_ANOMALY":"285.1420","CENTER_NAME":"EARTH","OBJECT_NAME":"STARLINK-4603","SEMIMAJOR_AXIS":"6917.902","BSTAR":"0.00000402600000","RCS_SIZE":"LARGE","TLE_LINE2":"2 53625  53.2171  31.3552 0002041  74.9798 285.1420 15.08832815 20962","EPHEMERIS_TYPE":"0","ARG_OF_PERICENTER":"74.9798","MEAN_ELEMENT_THEORY":"SGP4","MEAN_MOTION_DOT":"-0.00000224","TLE_LINE1":"1 53625U 22104AP  23006.91779240 -.00000224  00000-0  40260-5 0  9996","MEAN_MOTION_DDOT":"0.0000000000000","FILE":"3734255","INCLINATION":"53.2171","COUNTRY_CODE":"US","REV_AT_EPOCH":"2096","DECAY_DATE":null,"SITE":"AFETR","OBJECT_TYPE":"PAYLOAD","MEAN_MOTION":"15.08832815","OBJECT_ID":"2022-104AP","TIME_SYSTEM":"UTC","NORAD_CAT_ID":"53625","APOAPSIS":"541.179","RA_OF_ASC_NODE":"31.3552","LAUNCH_DATE":"2022-08-28","PERIOD":"95.438","PERIAPSIS":"538.355","REF_FRAME":"TEME"},{"MEAN_ANOMALY":"337.9070","GP_ID":"222346229","ECCENTRICITY":"0.00020800","ELEMENT_SET_NO":"999","CLASSIFICATION_TYPE":"U","EPOCH":"2023-01-06T12:08:04.644384","BSTAR":"-0.00015550000000","SEMIMAJOR_AXIS":"6917.936","OBJECT_NAME":"STARLINK-4554","CENTER_NAME":"EARTH","MEAN_MOTION_DDOT":"0.0000000000000","TLE_LINE1":"1 53626U 22104AQ  23006.50560931 -.00002761  00000-0 -15550-3 0  9998","MEAN_MOTION_DOT":"-0.00002761","MEAN_ELEMENT_THEORY":"SGP4","ARG_OF_PERICENTER":"22.2012","EPHEMERIS_TYPE":"0","TLE_LINE2":"2 53626  53.2203  33.0585 0002080  22.2012 337.9070 15.08821927 20916","RCS_SIZE":"LARGE","REF_FRAME":"TEME","PERIAPSIS":"538.362","LAUNCH_DATE":"2022-08-28","PERIOD":"95.439","RA_OF_ASC_NODE":"33.0585","APOAPSIS":"541.240","NORAD_CAT_ID":"53626","TIME_SYSTEM":"UTC","OBJECT_ID":"2022-104AQ","MEAN_MOTION":"15.08821927","SITE":"AFETR","OBJECT_TYPE":"PAYLOAD","DECAY_DATE":null,"REV_AT_EPOCH":"2091","COUNTRY_CODE":"US","INCLINATION":"53.2203","FILE":"3734255"},{"EPOCH":"2023-01-06T10:43:18.508800","ECCENTRICITY":"0.00023840","CLASSIFICATION_TYPE":"U","ELEMENT_SET_NO":"999","MEAN_ANOMALY":"329.2499","GP_ID":"222346459","CENTER_NAME":"EARTH","SEMIMAJOR_AXIS":"6917.946","OBJECT_NAME":"STARLINK-4595","BSTAR":"-0.00015798000000","TLE_LINE2":"2 53627  53.2194  33.3926 0002384  30.8633 329.2499 15.08818611 20903","EPHEMERIS_TYPE":"0","RCS_SIZE":"LARGE","MEAN_ELEMENT_THEORY":"SGP4","ARG_OF_PERICENTER":"30.8633","MEAN_MOTION_DOT":"-0.00002800","TLE_LINE1":"1 53627U 22104AR  23006.44674200 -.00002800  00000-0 -15798-3 0  9995","MEAN_MOTION_DDOT":"0.0000000000000","REV_AT_EPOCH":"2090","COUNTRY_CODE":"US","FILE":"3734255","INCLINATION":"53.2194","OBJECT_ID":"2022-104AR","DECAY_DATE":null,"MEAN_MOTION":"15.08818611","SITE":"AFETR","OBJECT_TYPE":"PAYLOAD","NORAD_CAT_ID":"53627","APOAPSIS":"541.460","TIME_SYSTEM":"UTC","PERIAPSIS":"538.162","REF_FRAME":"TEME","RA_OF_ASC_NODE":"33.3926","PERIOD":"95.439","LAUNCH_DATE":"2022-08-28"},{"ECCENTRICITY":"0.00023510","CLASSIFICATION_TYPE":"U","ELEMENT_SET_NO":"999","EPOCH":"2023-01-06T11:57:26.667648","MEAN_ANOMALY":"330.4401","GP_ID":"222314382","SEMIMAJOR_AXIS":"6917.932","OBJECT_NAME":"STARLINK-4600","CENTER_NAME":"EARTH","BSTAR":"-0.00049674000000","MEAN_ELEMENT_THEORY":"SGP4","ARG_OF_PERICENTER":"29.6724","TLE_LINE2":"2 53628  53.2185  33.0138 0002351  29.6724 330.4401 15.08823226 20227","EPHEMERIS_TYPE":"0","RCS_SIZE":"LARGE","MEAN_MOTION_DOT":"-0.00008182","TLE_LINE1":"1 53628U 22104AS  23006.49822532 -.00008182  00000-0 -49674-3 0  9993","MEAN_MOTION_DDOT":"0.0000000000000","OBJECT_ID":"2022-104AS","DECAY_DATE":null,"SITE":"AFETR","OBJECT_TYPE":"PAYLOAD","MEAN_MOTION":"15.08823226","COUNTRY_CODE":"US","REV_AT_EPOCH":"2022","FILE":"3733949","INCLINATION":"53.2185","PERIAPSIS":"538.170","REF_FRAME":"TEME","RA_OF_ASC_NODE":"33.0138","LAUNCH_DATE":"2022-08-28","PERIOD":"95.439","NORAD_CAT_ID":"53628","APOAPSIS":"541.423","TIME_SYSTEM":"UTC"},{"INCLINATION":"53.2202","FILE":"3734255","REV_AT_EPOCH":"2091","COUNTRY_CODE":"US","OBJECT_TYPE":"PAYLOAD","SITE":"AFETR","MEAN_MOTION":"15.08826898","DECAY_DATE":null,"OBJECT_ID":"2022-104AT","TIME_SYSTEM":"UTC","APOAPSIS":"541.482","NORAD_CAT_ID":"53629","LAUNCH_DATE":"2022-08-28","PERIOD":"95.438","RA_OF_ASC_NODE":"33.0752","REF_FRAME":"TEME","PERIAPSIS":"538.088","RCS_SIZE":"LARGE","EPHEMERIS_TYPE":"0","TLE_LINE2":"2 53629  53.2202  33.0752 0002453  19.7050 340.4037 15.08826898 20915","ARG_OF_PERICENTER":"19.7050","MEAN_ELEMENT_THEORY":"SGP4","MEAN_MOTION_DDOT":"0.0000000000000","TLE_LINE1":"1 53629U 22104AT  23006.50928878 -.00002668  00000-0 -14964-3 0  9993","MEAN_MOTION_DOT":"-0.00002668","CENTER_NAME":"EARTH","OBJECT_NAME":"STARLINK-4602","SEMIMAJOR_AXIS":"6917.920","BSTAR":"-0.00014964000000","EPOCH":"2023-01-06T12:13:22.550592","ELEMENT_SET_NO":"999","CLASSIFICATION_TYPE":"U","ECCENTRICITY":"0.00024530","GP_ID":"222345541","MEAN_ANOMALY":"340.4037"},{"BSTAR":"-0.00014405000000","CENTER_NAME":"EARTH","OBJECT_NAME":"STARLINK-4598","SEMIMAJOR_AXIS":"6917.963","GP_ID":"222345771","MEAN_ANOMALY":"304.8341","EPOCH":"2023-01-06T09:51:42.161760","ELEMENT_SET_NO":"999","CLASSIFICATION_TYPE":"U","ECCENTRICITY":"0.00017080","TIME_SYSTEM":"UTC","APOAPSIS":"541.010","NORAD_CAT_ID":"53630","LAUNCH_DATE":"2022-08-28","PERIOD":"95.439","RA_OF_ASC_NODE":"23.8933","REF_FRAME":"TEME","PERIAPSIS":"538.647","INCLINATION":"53.2208","FILE":"3734255","COUNTRY_CODE":"US","REV_AT_EPOCH":"2120","SITE":"AFETR","MEAN_MOTION":"15.08812912","OBJECT_TYPE":"PAYLOAD","DECAY_DATE":null,"OBJECT_ID":"2022-104AU","MEAN_MOTION_DDOT":"0.0000000000000","TLE_LINE1":"1 53630U 22104AU  23006.41090465 -.00002578  00000-0 -14405-3 0  9997","MEAN_MOTION_DOT":"-0.00002578","RCS_SIZE":"LARGE","EPHEMERIS_TYPE":"0","TLE_LINE2":"2 53630  53.2208  23.8933 0001708  55.2812 304.8341 15.08812912 21201","ARG_OF_PERICENTER":"55.2812","MEAN_ELEMENT_THEORY":"SGP4"},{"MEAN_MOTION_DOT":"-0.00002079","MEAN_MOTION_DDOT":"0.0000000000000","TLE_LINE1":"1 53631U 22104AV  23006.50191806 -.00002079  00000-0 -11261-3 0  9992","TLE_LINE2":"2 53631  53.2197  33.0338 0002007  28.9947 331.1156 15.08830421 20223","EPHEMERIS_TYPE":"0","RCS_SIZE":"LARGE","MEAN_ELEMENT_THEORY":"SGP4","ARG_OF_PERICENTER":"28.9947","NORAD_CAT_ID":"53631","APOAPSIS":"541.163","TIME_SYSTEM":"UTC","PERIAPSIS":"538.386","REF_FRAME":"TEME","RA_OF_ASC_NODE":"33.0338","LAUNCH_DATE":"2022-08-28","PERIOD":"95.438","REV_AT_EPOCH":"2022","COUNTRY_CODE":"US","FILE":"3733946","INCLINATION":"53.2197","OBJECT_ID":"2022-104AV","DECAY_DATE":null,"MEAN_MOTION":"15.08830421","SITE":"AFETR","OBJECT_TYPE":"PAYLOAD","MEAN_ANOMALY":"331.1156","GP_ID":"222314067","EPOCH":"2023-01-06T12:02:45.720384","ECCENTRICITY":"0.00020070","CLASSIFICATION_TYPE":"U","ELEMENT_SET_NO":"999","BSTAR":"-0.00011261000000","CENTER_NAME":"EARTH","SEMIMAJOR_AXIS":"6917.910","OBJECT_NAME":"STARLINK-4599"}];
